[{"OBJECT_NAME":"KINEIS-1D","OBJECT_ID":"2024-114D","EPOCH":"2026-03-10T00:18:20.784384","MEAN_MOTION":14.76114357,"ECCENTRICITY":0.00024808,"INCLINATION":97.9968,"RA_OF_ASC_NODE":90.2039,"ARG_OF_PERICENTER":123.4456,"MEAN_ANOMALY":236.6991,"EPHEMERIS_TYPE":0,"CLASSIFICATION_TYPE":"U","NORAD_CAT_ID":60082,"ELEMENT_SET_NO":999,"REV_AT_EPOCH":9249,"BSTAR":0.00015372971,"MEAN_MOTION_DOT":1.01e-5,"MEAN_MOTION_DDOT":0},{"OBJECT_NAME":"FENGYUN 1C DEB","OBJECT_ID":"1999-025ANK","EPOCH":"2026-03-09T17:30:19.114560","MEAN_MOTION":14.72162436,"ECCENTRICITY":0.00232259,"INCLINATION":99.3408,"RA_OF_ASC_NODE":2.0432,"ARG_OF_PERICENTER":343.005,"MEAN_ANOMALY":17.0373,"EPHEMERIS_TYPE":0,"CLASSIFICATION_TYPE":"U","NORAD_CAT_ID":30628,"ELEMENT_SET_NO":999,"REV_AT_EPOCH":99749,"BSTAR":0.002965931,"MEAN_MOTION_DOT":0.00018751,"MEAN_MOTION_DDOT":0}]
